{
  "links" : {
    "next" : "https://api.nasa.gov/neo/rest/v1/feed?start_date=2009-12-23&end_date=2009-12-23&detailed=true&api_key=t0TVs3DtDT2H8Oy2Zy8m2eVrNsAVKAexjcZXUckd",
    "prev" : "https://api.nasa.gov/neo/rest/v1/feed?start_date=2009-12-21&end_date=2009-12-21&detailed=true&api_key=t0TVs3DtDT2H8Oy2Zy8m2eVrNsAVKAexjcZXUckd",
    "self" : "https://api.nasa.gov/neo/rest/v1/feed?start_date=2009-12-22&end_date=2009-12-22&detailed=true&api_key=t0TVs3DtDT2H8Oy2Zy8m2eVrNsAVKAexjcZXUckd"
  },
  "element_count" : 7,
  "near_earth_objects" : {
    "2009-12-22" : [ {
      "links" : {
        "self" : "https://api.nasa.gov/neo/rest/v1/neo/2228587?api_key=t0TVs3DtDT2H8Oy2Zy8m2eVrNsAVKAexjcZXUckd"
      },
      "neo_reference_id" : "2228587",
      "name" : "228587 (2002 AP7)",
      "nasa_jpl_url" : "http://ssd.jpl.nasa.gov/sbdb.cgi?sstr=2228587",
      "absolute_magnitude_h" : 19.3,
      "estimated_diameter" : {
        "kilometers" : {
          "estimated_diameter_min" : 0.3669061375,
          "estimated_diameter_max" : 0.8204270649
        },
        "meters" : {
          "estimated_diameter_min" : 366.9061375314,
          "estimated_diameter_max" : 820.4270648822
        },
        "miles" : {
          "estimated_diameter_min" : 0.2279848336,
          "estimated_diameter_max" : 0.5097895857
        },
        "feet" : {
          "estimated_diameter_min" : 1203.7603322587,
          "estimated_diameter_max" : 2691.6899315481
        }
      },
      "is_potentially_hazardous_asteroid" : false,
      "close_approach_data" : [ {
        "close_approach_date" : "2009-12-22",
        "epoch_date_close_approach" : 1261468800000,
        "relative_velocity" : {
          "kilometers_per_second" : "12.3676118323",
          "kilometers_per_hour" : "44523.4025963365",
          "miles_per_hour" : "27665.110907707"
        },
        "miss_distance" : {
          "astronomical" : "0.3311724528",
          "lunar" : "128.8260955811",
          "kilometers" : "49542696",
          "miles" : "30784404"
        },
        "orbiting_body" : "Earth"
      } ],
      "orbital_data" : {
        "orbit_id" : "34",
        "orbit_determination_date" : "2017-04-06 09:25:10",
        "orbit_uncertainty" : "0",
        "minimum_orbit_intersection" : ".331056",
        "jupiter_tisserand_invariant" : "4.746",
        "epoch_osculation" : "2458000.5",
        "eccentricity" : ".09344769751293286",
        "semi_major_axis" : "1.364367392831731",
        "inclination" : "23.86732313994863",
        "ascending_node_longitude" : "98.58401672479908",
        "orbital_period" : "582.0970847735368",
        "perihelion_distance" : "1.236870401409883",
        "perihelion_argument" : "283.4588111430377",
        "aphelion_distance" : "1.49186438425358",
        "perihelion_time" : "2458002.647636023983",
        "mean_anomaly" : "358.6717869083049",
        "mean_motion" : ".6184535353583792",
        "equinox" : "J2000"
      }
    }, {
      "links" : {
        "self" : "https://api.nasa.gov/neo/rest/v1/neo/2368790?api_key=t0TVs3DtDT2H8Oy2Zy8m2eVrNsAVKAexjcZXUckd"
      },
      "neo_reference_id" : "2368790",
      "name" : "368790 (2005 XK8)",
      "nasa_jpl_url" : "http://ssd.jpl.nasa.gov/sbdb.cgi?sstr=2368790",
      "absolute_magnitude_h" : 19.8,
      "estimated_diameter" : {
        "kilometers" : {
          "estimated_diameter_min" : 0.2914439045,
          "estimated_diameter_max" : 0.6516883822
        },
        "meters" : {
          "estimated_diameter_min" : 291.4439045349,
          "estimated_diameter_max" : 651.6883821679
        },
        "miles" : {
          "estimated_diameter_min" : 0.1810947904,
          "estimated_diameter_max" : 0.4049402617
        },
        "feet" : {
          "estimated_diameter_min" : 956.1808197541,
          "estimated_diameter_max" : 2138.0853117517
        }
      },
      "is_potentially_hazardous_asteroid" : false,
      "close_approach_data" : [ {
        "close_approach_date" : "2009-12-22",
        "epoch_date_close_approach" : 1261468800000,
        "relative_velocity" : {
          "kilometers_per_second" : "15.4208753122",
          "kilometers_per_hour" : "55515.1511238318",
          "miles_per_hour" : "34494.9559858054"
        },
        "miss_distance" : {
          "astronomical" : "0.4712480228",
          "lunar" : "183.3154907227",
          "kilometers" : "70497704",
          "miles" : "43805240"
        },
        "orbiting_body" : "Earth"
      } ],
      "orbital_data" : {
        "orbit_id" : "41",
        "orbit_determination_date" : "2017-07-28 06:19:27",
        "orbit_uncertainty" : "0",
        "minimum_orbit_intersection" : ".221126",
        "jupiter_tisserand_invariant" : "4.201",
        "epoch_osculation" : "2458000.5",
        "eccentricity" : ".2539521737689831",
        "semi_major_axis" : "1.611168098500465",
        "inclination" : "25.45743180458256",
        "ascending_node_longitude" : "277.7850382633817",
        "orbital_period" : "746.9812627331446",
        "perihelion_distance" : "1.202008457579032",
        "perihelion_argument" : "173.424640871649",
        "aphelion_distance" : "2.020327739421897",
        "perihelion_time" : "2458201.440503036944",
        "mean_anomaly" : "263.1587742527585",
        "mean_motion" : ".4819397995108858",
        "equinox" : "J2000"
      }
    }, {
      "links" : {
        "self" : "https://api.nasa.gov/neo/rest/v1/neo/3182172?api_key=t0TVs3DtDT2H8Oy2Zy8m2eVrNsAVKAexjcZXUckd"
      },
      "neo_reference_id" : "3182172",
      "name" : "(2004 JQ1)",
      "nasa_jpl_url" : "http://ssd.jpl.nasa.gov/sbdb.cgi?sstr=3182172",
      "absolute_magnitude_h" : 20.0,
      "estimated_diameter" : {
        "kilometers" : {
          "estimated_diameter_min" : 0.2658,
          "estimated_diameter_max" : 0.5943468684
        },
        "meters" : {
          "estimated_diameter_min" : 265.8,
          "estimated_diameter_max" : 594.3468684194
        },
        "miles" : {
          "estimated_diameter_min" : 0.1651604118,
          "estimated_diameter_max" : 0.369309908
        },
        "feet" : {
          "estimated_diameter_min" : 872.047272,
          "estimated_diameter_max" : 1949.9569797852
        }
      },
      "is_potentially_hazardous_asteroid" : true,
      "close_approach_data" : [ {
        "close_approach_date" : "2009-12-22",
        "epoch_date_close_approach" : 1261468800000,
        "relative_velocity" : {
          "kilometers_per_second" : "27.4032193237",
          "kilometers_per_hour" : "98651.5895654888",
          "miles_per_hour" : "61298.2613052894"
        },
        "miss_distance" : {
          "astronomical" : "0.2421362678",
          "lunar" : "94.1910095215",
          "kilometers" : "36223072",
          "miles" : "22507972"
        },
        "orbiting_body" : "Earth"
      } ],
      "orbital_data" : {
        "orbit_id" : "36",
        "orbit_determination_date" : "2017-06-04 06:16:52",
        "orbit_uncertainty" : "0",
        "minimum_orbit_intersection" : ".03227",
        "jupiter_tisserand_invariant" : "5.077",
        "epoch_osculation" : "2458000.5",
        "eccentricity" : ".4501092419457689",
        "semi_major_axis" : "1.193808340533731",
        "inclination" : "32.82909970238478",
        "ascending_node_longitude" : "77.07878812611693",
        "orbital_period" : "476.431359806929",
        "perihelion_distance" : ".6564641733475574",
        "perihelion_argument" : "272.6355791644916",
        "aphelion_distance" : "1.731152507719905",
        "perihelion_time" : "2457996.323395027522",
        "mean_anomaly" : "3.155916920962632",
        "mean_motion" : ".755617766525461",
        "equinox" : "J2000"
      }
    } ]
  }
}